{
    "links": {
        "self": "http://www.neowsapp.com/rest/v1/neo/3829454?api_key=iIulBulltgU6a56xZRHN4H3l9WmuAYTsLGpBGhQ2"
    },
    "id": "3829454",
    "neo_reference_id": "3829454",
    "name": "(2018 RY6)",
    "designation": "2018 RY6",
    "nasa_jpl_url": "http://ssd.jpl.nasa.gov/sbdb.cgi?sstr=3829454",
    "absolute_magnitude_h": 22.8,
    "estimated_diameter": {
        "kilometers": {
            "estimated_diameter_min": 0.0732073989,
            "estimated_diameter_max": 0.1636967205
        },
        "meters": {
            "estimated_diameter_min": 73.2073989347,
            "estimated_diameter_max": 163.696720474
        },
        "miles": {
            "estimated_diameter_min": 0.0454889547,
            "estimated_diameter_max": 0.1017163949
        },
        "feet": {
            "estimated_diameter_min": 240.181762721,
            "estimated_diameter_max": 537.0627483999
        }
    },
    "is_potentially_hazardous_asteroid": false,
    "close_approach_data": [
        {
            "close_approach_date": "2018-08-03",
            "close_approach_date_full": "2018-Aug-03 13:00",
            "epoch_date_close_approach": 1533301200000,
            "relative_velocity": {
                "kilometers_per_second": "12.7765613567",
                "kilometers_per_hour": "45995.6208842514",
                "miles_per_hour": "28579.8900988839"
            },
            "miss_distance": {
                "astronomical": "0.1405155155",
                "lunar": "54.6605355295",
                "kilometers": "21020821.820751985",
                "miles": "13061732.998807993"
            },
            "orbiting_body": "Earth"
        }
    ],
    "orbital_data": {
        "orbit_id": "2",
        "orbit_determination_date": "2018-09-17 07:13:21",
        "first_observation_date": "2018-09-12",
        "last_observation_date": "2018-09-17",
        "data_arc_in_days": 5,
        "observations_used": 27,
        "orbit_uncertainty": "9",
        "minimum_orbit_intersection": ".0281126",
        "jupiter_tisserand_invariant": "3.487",
        "epoch_osculation": "2458376.5",
        "eccentricity": ".6281584974976965",
        "semi_major_axis": "2.074234942755429",
        "inclination": "5.164885727182781",
        "ascending_node_longitude": "173.0005827210208",
        "orbital_period": "1091.152233835883",
        "perihelion_distance": ".7712866376569583",
        "perihelion_argument": "84.44558700745853",
        "aphelion_distance": "3.3771832478539",
        "perihelion_time": "2458296.334046822222",
        "mean_anomaly": "26.44886959773277",
        "mean_motion": ".3299264656540553",
        "equinox": "J2000",
        "orbit_class": {
            "orbit_class_type": "APO",
            "orbit_class_description": "Near-Earth asteroid orbits which cross the Earth’s orbit similar to that of 1862 Apollo",
            "orbit_class_range": "a (semi-major axis) > 1.0 AU; q (perihelion) < 1.017 AU"
        }
    },
    "is_sentry_object": false
}